{
  "type": "FeatureCollection",
  "features": [
    {
      "type": "Feature",
      "properties": {
        "norad_id": 60182,
        "name": "ALOS-4 (DAICHI-4)",
        "group": "resource",
        "lat": 11.618553646057856,
        "lon": -88.31880118825714,
        "alt_km": 632.0006336491206,
        "timestamp": "2025-12-21T07:34:34.198390+00:00",
        "meta_object_name": "ALOS-4 (DAICHI-4)",
        "meta_object_id": "2024-123A",
        "meta_epoch": "2025-12-20T19:27:23.067360",
        "meta_mean_motion": 14.79476697,
        "meta_eccentricity": 0.00013881,
        "meta_inclination": 97.9224,
        "meta_ra_of_asc_node": 89.5428,
        "meta_arg_of_pericenter": 101.339,
        "meta_mean_anomaly": 258.7977,
        "meta_ephemeris_type": 0,
        "meta_classification_type": "U",
        "meta_norad_cat_id": 60182,
        "meta_element_set_no": 999,
        "meta_rev_at_epoch": 7950,
        "meta_bstar": 0.00018374076,
        "meta_mean_motion_dot": 1.321e-05,
        "meta_mean_motion_ddot": 0,
        "tle_line1": "1 60182U 24123A   25354.81068365  .00001321  00000+0  18374-3 0  9997",
        "tle_line2": "2 60182  97.9224  89.5428 0001388 101.3390 258.7977 14.79476697 79501"
      },
      "geometry": {
        "type": "Point",
        "coordinates": [
          -88.31880118825714,
          11.618553646057856
        ]
      }
    },
    {
      "type": "Feature",
      "properties": {
        "norad_id": 60452,
        "name": "LEGION 3",
        "group": "resource",
        "lat": -28.389476387546416,
        "lon": -128.5830418884326,
        "alt_km": 518.0672845211038,
        "timestamp": "2025-12-21T07:34:34.198399+00:00",
        "meta_object_name": "LEGION 3",
        "meta_object_id": "2024-146A",
        "meta_epoch": "2025-12-20T22:16:19.970688",
        "meta_mean_motion": 15.1583926,
        "meta_eccentricity": 0.00156807,
        "meta_inclination": 45.0017,
        "meta_ra_of_asc_node": 266.2348,
        "meta_arg_of_pericenter": 242.6749,
        "meta_mean_anomaly": 117.2533,
        "meta_ephemeris_type": 0,
        "meta_classification_type": "U",
        "meta_norad_cat_id": 60452,
        "meta_element_set_no": 999,
        "meta_rev_at_epoch": 7497,
        "meta_bstar": 0.00016736751,
        "meta_mean_motion_dot": 2.997e-05,
        "meta_mean_motion_ddot": 0,
        "tle_line1": "1 60452U 24146A   25354.92800892  .00002997  00000+0  16737-3 0  9994",
        "tle_line2": "2 60452  45.0017 266.2348 0015680 242.6749 117.2533 15.15839260 74970"
      },
      "geometry": {
        "type": "Point",
        "coordinates": [
          -128.5830418884326,
          -28.389476387546416
        ]
      }
    },
    {
      "type": "Feature",
      "properties": {
        "norad_id": 60453,
        "name": "LEGION 4",
        "group": "resource",
        "lat": -29.358514218635204,
        "lon": -38.27228513010543,
        "alt_km": 516.6392085222906,
        "timestamp": "2025-12-21T07:34:34.198409+00:00",
        "meta_object_name": "LEGION 4",
        "meta_object_id": "2024-146B",
        "meta_epoch": "2025-12-20T22:16:45.377472",
        "meta_mean_motion": 15.15901836,
        "meta_eccentricity": 0.00086723,
        "meta_inclination": 45.0393,
        "meta_ra_of_asc_node": 358.0081,
        "meta_arg_of_pericenter": 355.2518,
        "meta_mean_anomaly": 4.8277,
        "meta_ephemeris_type": 0,
        "meta_classification_type": "U",
        "meta_norad_cat_id": 60453,
        "meta_element_set_no": 999,
        "meta_rev_at_epoch": 7382,
        "meta_bstar": 0.00019183422,
        "meta_mean_motion_dot": 3.475e-05,
        "meta_mean_motion_ddot": 0,
        "tle_line1": "1 60453U 24146B   25354.92830298  .00003475  00000+0  19183-3 0  9998",
        "tle_line2": "2 60453  45.0393 358.0081 0008672 355.2518   4.8277 15.15901836 73828"
      },
      "geometry": {
        "type": "Point",
        "coordinates": [
          -38.27228513010543,
          -29.358514218635204
        ]
      }
    },
    {
      "type": "Feature",
      "properties": {
        "norad_id": 60989,
        "name": "SENTINEL-2C",
        "group": "resource",
        "lat": -51.75112725769454,
        "lon": -123.35038583697076,
        "alt_km": 796.5498812657661,
        "timestamp": "2025-12-21T07:34:34.198418+00:00",
        "meta_object_name": "SENTINEL-2C",
        "meta_object_id": "2024-157A",
        "meta_epoch": "2025-12-20T22:06:04.711104",
        "meta_mean_motion": 14.30820541,
        "meta_eccentricity": 0.00012041,
        "meta_inclination": 98.5673,
        "meta_ra_of_asc_node": 67.2853,
        "meta_arg_of_pericenter": 95.6595,
        "meta_mean_anomaly": 264.4726,
        "meta_ephemeris_type": 0,
        "meta_classification_type": "U",
        "meta_norad_cat_id": 60989,
        "meta_element_set_no": 999,
        "meta_rev_at_epoch": 6749,
        "meta_bstar": 5.7325593e-05,
        "meta_mean_motion_dot": 1.07e-06,
        "meta_mean_motion_ddot": 0,
        "tle_line1": "1 60989U 24157A   25354.92088786  .00000107  00000+0  57326-4 0  9992",
        "tle_line2": "2 60989  98.5673  67.2853 0001204  95.6595 264.4726 14.30820541 67494"
      },
      "geometry": {
        "type": "Point",
        "coordinates": [
          -123.35038583697076,
          -51.75112725769454
        ]
      }
    },
    {
      "type": "Feature",
      "properties": {
        "norad_id": 61735,
        "name": "IONOSFERA-M 1",
        "group": "resource",
        "lat": -67.47173740920094,
        "lon": 23.328882823514906,
        "alt_km": 823.6171695535913,
        "timestamp": "2025-12-21T07:34:34.198427+00:00",
        "meta_object_name": "IONOSFERA-M 1",
        "meta_object_id": "2024-199A",
        "meta_epoch": "2025-12-20T21:58:09.848928",
        "meta_mean_motion": 14.22715727,
        "meta_eccentricity": 5.655e-05,
        "meta_inclination": 98.7398,
        "meta_ra_of_asc_node": 224.7007,
        "meta_arg_of_pericenter": 11.5563,
        "meta_mean_anomaly": 348.5628,
        "meta_ephemeris_type": 0,
        "meta_classification_type": "U",
        "meta_norad_cat_id": 61735,
        "meta_element_set_no": 999,
        "meta_rev_at_epoch": 10235,
        "meta_bstar": 4.334007e-05,
        "meta_mean_motion_dot": 5.3e-07,
        "meta_mean_motion_ddot": 0,
        "tle_line1": "1 61735U 24199A   25354.91539177  .00000053  00000+0  43340-4 0  9993",
        "tle_line2": "2 61735  98.7398 224.7007 0000565  11.5563 348.5628 14.22715727102352"
      },
      "geometry": {
        "type": "Point",
        "coordinates": [
          23.328882823514906,
          -67.47173740920094
        ]
      }
    },
    {
      "type": "Feature",
      "properties": {
        "norad_id": 61736,
        "name": "IONOSFERA-M 2",
        "group": "resource",
        "lat": 69.87592628986434,
        "lon": -159.81257452343084,
        "alt_km": 808.2121567095382,
        "timestamp": "2025-12-21T07:34:34.198436+00:00",
        "meta_object_name": "IONOSFERA-M 2",
        "meta_object_id": "2024-199B",
        "meta_epoch": "2025-12-20T22:48:02.292192",
        "meta_mean_motion": 14.22717902,
        "meta_eccentricity": 0.00018151,
        "meta_inclination": 98.7397,
        "meta_ra_of_asc_node": 224.6474,
        "meta_arg_of_pericenter": 100.0938,
        "meta_mean_anomaly": 260.0445,
        "meta_ephemeris_type": 0,
        "meta_classification_type": "U",
        "meta_norad_cat_id": 61736,
        "meta_element_set_no": 999,
        "meta_rev_at_epoch": 10548,
        "meta_bstar": 4.432605e-05,
        "meta_mean_motion_dot": 5.5e-07,
        "meta_mean_motion_ddot": 0,
        "tle_line1": "1 61736U 24199B   25354.95002653  .00000055  00000+0  44326-4 0  9999",
        "tle_line2": "2 61736  98.7397 224.6474 0001815 100.0938 260.0445 14.22717902105487"
      },
      "geometry": {
        "type": "Point",
        "coordinates": [
          -159.81257452343084,
          69.87592628986434
        ]
      }
    },
    {
      "type": "Feature",
      "properties": {
        "norad_id": 63772,
        "name": "BIOMASS",
        "group": "resource",
        "lat": -25.329164448868163,
        "lon": -3.650368750592181,
        "alt_km": 675.031181000073,
        "timestamp": "2025-12-21T07:34:34.198446+00:00",
        "meta_object_name": "BIOMASS",
        "meta_object_id": "2025-090A",
        "meta_epoch": "2025-12-20T11:00:22.690080",
        "meta_mean_motion": 14.67537273,
        "meta_eccentricity": 0.00011035,
        "meta_inclination": 98.07,
        "meta_ra_of_asc_node": 179.356,
        "meta_arg_of_pericenter": 81.418,
        "meta_mean_anomaly": 278.715,
        "meta_ephemeris_type": 0,
        "meta_classification_type": "U",
        "meta_norad_cat_id": 63772,
        "meta_element_set_no": 999,
        "meta_rev_at_epoch": 3447,
        "meta_bstar": 0.0001671094,
        "meta_mean_motion_dot": 9e-06,
        "meta_mean_motion_ddot": 0,
        "tle_line1": "1 63772U 25090A   25354.45859595  .00000900  00000+0  16711-3 0  9997",
        "tle_line2": "2 63772  98.0700 179.3560 0001103  81.4180 278.7150 14.67537273 34472"
      },
      "geometry": {
        "type": "Point",
        "coordinates": [
          -3.650368750592181,
          -25.329164448868163
        ]
      }
    }
  ]
}